*******************************************************************************
Ephemeris / WWW_USER Thu May 23 17:15:47 2024 Pasadena, USA      / Horizons    
*******************************************************************************
Target body name: (2017 SN16)                     {source: JPL#20}
Center body name: Earth (399)                     {source: DE441}
Center-site name: Gemini South Obs., Cerro Pachon
*******************************************************************************
Start time      : A.D. 2018-Sep-11 22:41:00.0000 UT      
Stop  time      : A.D. 2018-Sep-12 10:36:00.0000 UT      
Step-size       : 1 minutes
*******************************************************************************
Target pole/equ : undefined
Target radii    : undefined                                                    
Center geodetic : 289.2634, -30.2406227, 2.71233  {E-lon(deg),Lat(deg),Alt(km)}
Center cylindric: 289.2634,5517.21435,-3194.81213 {E-lon(deg),Dxy(km),Dz(km)}
Center pole/equ : ITRF93                          {East-longitude positive}
Center radii    : 6378.137, 6378.137, 6356.752 km {Equator_a, b, pole_c}       
Target primary  : Sun
Vis. interferer : MOON (R_eq= 1737.400) km        {source: DE441}
Rel. light bend : Sun                             {source: DE441}
Rel. lght bnd GM: 1.3271E+11 km^3/s^2                                          
Small-body perts: Yes                             {source: SB441-N16}
Atmos refraction: NO (AIRLESS)
RA format       : HMS
Time format     : CAL 
Calendar mode   : Mixed Julian/Gregorian
RTS-only print  : NO       
EOP file        : eop.240523.p240816                                           
EOP coverage    : DATA-BASED 1962-JAN-20 TO 2024-MAY-23. PREDICTS-> 2024-AUG-15
Units conversion: 1 au= 149597870.700 km, c= 299792.458 km/s, 1 day= 86400.0 s 
Table cut-offs 1: Elevation (-90.0deg=NO ),Airmass (>38.000=NO), Daylight (YES)
Table cut-offs 2: Solar elongation (  0.0,180.0=NO ),Local Hour Angle( 0.0=NO )
Table cut-offs 3: RA/DEC angular rate (     0.0=NO )                           
*******************************************************************************
Initial IAU76/J2000 heliocentric ecliptic osculating elements (au, days, deg.):
  EPOCH=  2458305.5 ! 2018-Jul-06.00 (TDB)         Residual RMS= .23751        
   EC= .1454884975659386   QR= .8682464985612274   TP= 2458145.5722438502      
   OM= 2.759719470837934   W=  137.1017088998531   IN= 13.38264682844635       
  Equivalent ICRF heliocentric cartesian coordinates (au, au/d):
   X= 5.756755401261899E-01  Y=-7.953424559592890E-01  Z=-6.031561894536019E-01
  VX= 1.332076113263395E-02 VY= 5.454663564585547E-03 VZ= 3.896229736425836E-03
Asteroid physical parameters (km, seconds, rotational period in hours):        
   GM= n.a.                RAD= n.a.               ROTPER= n.a.                
   H= 23.34                G= .150                 B-V= n.a.                   
                           ALBEDO= n.a.            STYP= n.a.                  
*******************************************************************************
 Date__(UT)__HR:MN     R.A._________(ICRF)_________DEC
******************************************************
$$SOE
 2018-Sep-11 22:41 Cm  00 43 06.959194 -21 24 29.37553
 2018-Sep-11 22:42 Cm  00 43 06.751837 -21 24 28.11569
 2018-Sep-11 22:43 Cm  00 43 06.544405 -21 24 26.85591
 2018-Sep-11 22:44 Cm  00 43 06.336899 -21 24 25.59619
 2018-Sep-11 22:45 Cm  00 43 06.129318 -21 24 24.33652
 2018-Sep-11 22:46 Cm  00 43 05.921662 -21 24 23.07691
 2018-Sep-11 22:47 Cm  00 43 05.713932 -21 24 21.81734
 2018-Sep-11 22:48 Cm  00 43 05.506126 -21 24 20.55783
 2018-Sep-11 22:49 Cm  00 43 05.298246 -21 24 19.29836
 2018-Sep-11 22:50 Cm  00 43 05.090290 -21 24 18.03894
 2018-Sep-11 22:51 Cm  00 43 04.882259 -21 24 16.77956
 2018-Sep-11 22:52 Cm  00 43 04.674153 -21 24 15.52023
 2018-Sep-11 22:53 Cm  00 43 04.465971 -21 24 14.26094
 2018-Sep-11 22:54 Cm  00 43 04.257713 -21 24 13.00168
 2018-Sep-11 22:55 Cm  00 43 04.049380 -21 24 11.74247
 2018-Sep-11 22:56 Cm  00 43 03.840971 -21 24 10.48329
 2018-Sep-11 22:57 Cm  00 43 03.632486 -21 24 09.22415
 2018-Sep-11 22:58 Nm  00 43 03.423926 -21 24 07.96504
 2018-Sep-11 22:59 Nm  00 43 03.215289 -21 24 06.70597
 2018-Sep-11 23:00 Nr  00 43 03.006576 -21 24 05.44692
 2018-Sep-11 23:01 Nm  00 43 02.797787 -21 24 04.18791
 2018-Sep-11 23:02 Nm  00 43 02.588921 -21 24 02.92892
 2018-Sep-11 23:03 Nm  00 43 02.379980 -21 24 01.66996
 2018-Sep-11 23:04 Nm  00 43 02.170961 -21 24 00.41102
 2018-Sep-11 23:05 Nm  00 43 01.961866 -21 23 59.15210
 2018-Sep-11 23:06 Nm  00 43 01.752695 -21 23 57.89321
 2018-Sep-11 23:07 Nm  00 43 01.543446 -21 23 56.63433
 2018-Sep-11 23:08 Nm  00 43 01.334121 -21 23 55.37548
 2018-Sep-11 23:09 Nm  00 43 01.124719 -21 23 54.11664
 2018-Sep-11 23:10 Nm  00 43 00.915240 -21 23 52.85782
 2018-Sep-11 23:11 Nm  00 43 00.705683 -21 23 51.59900
 2018-Sep-11 23:12 Nm  00 43 00.496050 -21 23 50.34021
 2018-Sep-11 23:13 Nm  00 43 00.286340 -21 23 49.08142
 2018-Sep-11 23:14 Nm  00 43 00.076552 -21 23 47.82264
 2018-Sep-11 23:15 Nm  00 42 59.866687 -21 23 46.56386
 2018-Sep-11 23:16 Nm  00 42 59.656744 -21 23 45.30510
 2018-Sep-11 23:17 Nm  00 42 59.446724 -21 23 44.04633
 2018-Sep-11 23:18 Nm  00 42 59.236626 -21 23 42.78757
 2018-Sep-11 23:19 Nm  00 42 59.026451 -21 23 41.52881
 2018-Sep-11 23:20 Nm  00 42 58.816198 -21 23 40.27005
 2018-Sep-11 23:21 Nm  00 42 58.605867 -21 23 39.01129
 2018-Sep-11 23:22 Nm  00 42 58.395458 -21 23 37.75252
 2018-Sep-11 23:23 Nm  00 42 58.184972 -21 23 36.49375
 2018-Sep-11 23:24 Nm  00 42 57.974407 -21 23 35.23497
 2018-Sep-11 23:25 Am  00 42 57.763765 -21 23 33.97618
 2018-Sep-11 23:26 Am  00 42 57.553045 -21 23 32.71738
 2018-Sep-11 23:27 Am  00 42 57.342246 -21 23 31.45857
 2018-Sep-11 23:28 Am  00 42 57.131369 -21 23 30.19974
 2018-Sep-11 23:29 Am  00 42 56.920414 -21 23 28.94090
 2018-Sep-11 23:30 Am  00 42 56.709381 -21 23 27.68205
 2018-Sep-11 23:31 Am  00 42 56.498270 -21 23 26.42317
 2018-Sep-11 23:32 Am  00 42 56.287080 -21 23 25.16428
 2018-Sep-11 23:33 Am  00 42 56.075811 -21 23 23.90536
 2018-Sep-11 23:34 Am  00 42 55.864465 -21 23 22.64642
 2018-Sep-11 23:35 Am  00 42 55.653039 -21 23 21.38746
 2018-Sep-11 23:36 Am  00 42 55.441536 -21 23 20.12847
 2018-Sep-11 23:37 Am  00 42 55.229953 -21 23 18.86945
 2018-Sep-11 23:38 Am  00 42 55.018292 -21 23 17.61040
 2018-Sep-11 23:39 Am  00 42 54.806553 -21 23 16.35132
 2018-Sep-11 23:40 Am  00 42 54.594734 -21 23 15.09220
 2018-Sep-11 23:41 Am  00 42 54.382837 -21 23 13.83306
 2018-Sep-11 23:42 Am  00 42 54.170861 -21 23 12.57387
 2018-Sep-11 23:43 Am  00 42 53.958807 -21 23 11.31465
 2018-Sep-11 23:44 Am  00 42 53.746673 -21 23 10.05539
 2018-Sep-11 23:45 Am  00 42 53.534461 -21 23 08.79609
 2018-Sep-11 23:46 Am  00 42 53.322170 -21 23 07.53675
 2018-Sep-11 23:47 Am  00 42 53.109800 -21 23 06.27736
 2018-Sep-11 23:48 Am  00 42 52.897351 -21 23 05.01792
 2018-Sep-11 23:49 Am  00 42 52.684823 -21 23 03.75844
 2018-Sep-11 23:50 Am  00 42 52.472216 -21 23 02.49891
 2018-Sep-11 23:51 Am  00 42 52.259530 -21 23 01.23933
 2018-Sep-11 23:52 Am  00 42 52.046765 -21 22 59.97970
 2018-Sep-11 23:53  m  00 42 51.833921 -21 22 58.72001
 2018-Sep-11 23:54  m  00 42 51.620997 -21 22 57.46027
 2018-Sep-11 23:55  m  00 42 51.407995 -21 22 56.20047
 2018-Sep-11 23:56  m  00 42 51.194914 -21 22 54.94061
 2018-Sep-11 23:57  m  00 42 50.981754 -21 22 53.68069
 2018-Sep-11 23:58  m  00 42 50.768514 -21 22 52.42071
 2018-Sep-11 23:59  m  00 42 50.555195 -21 22 51.16067
 2018-Sep-12 00:00  m  00 42 50.341797 -21 22 49.90056
 2018-Sep-12 00:01  m  00 42 50.128321 -21 22 48.64038
 2018-Sep-12 00:02  m  00 42 49.914764 -21 22 47.38014
 2018-Sep-12 00:03  m  00 42 49.701129 -21 22 46.11982
 2018-Sep-12 00:04  m  00 42 49.487415 -21 22 44.85944
 2018-Sep-12 00:05  m  00 42 49.273621 -21 22 43.59898
 2018-Sep-12 00:06  m  00 42 49.059748 -21 22 42.33844
 2018-Sep-12 00:07  m  00 42 48.845796 -21 22 41.07783
 2018-Sep-12 00:08  m  00 42 48.631765 -21 22 39.81714
 2018-Sep-12 00:09  m  00 42 48.417655 -21 22 38.55637
 2018-Sep-12 00:10  m  00 42 48.203466 -21 22 37.29552
 2018-Sep-12 00:11  m  00 42 47.989197 -21 22 36.03459
 2018-Sep-12 00:12  m  00 42 47.774850 -21 22 34.77357
 2018-Sep-12 00:13  m  00 42 47.560423 -21 22 33.51246
 2018-Sep-12 00:14  m  00 42 47.345917 -21 22 32.25127
 2018-Sep-12 00:15  m  00 42 47.131332 -21 22 30.98999
 2018-Sep-12 00:16  m  00 42 46.916668 -21 22 29.72862
 2018-Sep-12 00:17  m  00 42 46.701925 -21 22 28.46715
 2018-Sep-12 00:18  m  00 42 46.487102 -21 22 27.20559
 2018-Sep-12 00:19  m  00 42 46.272201 -21 22 25.94393
 2018-Sep-12 00:20  m  00 42 46.057221 -21 22 24.68218
 2018-Sep-12 00:21  m  00 42 45.842162 -21 22 23.42033
 2018-Sep-12 00:22  m  00 42 45.627023 -21 22 22.15837
 2018-Sep-12 00:23  m  00 42 45.411806 -21 22 20.89631
 2018-Sep-12 00:24  m  00 42 45.196510 -21 22 19.63415
 2018-Sep-12 00:25  m  00 42 44.981135 -21 22 18.37189
 2018-Sep-12 00:26  m  00 42 44.765681 -21 22 17.10951
 2018-Sep-12 00:27  m  00 42 44.550148 -21 22 15.84703
 2018-Sep-12 00:28  m  00 42 44.334537 -21 22 14.58444
 2018-Sep-12 00:29  m  00 42 44.118846 -21 22 13.32173
 2018-Sep-12 00:30  m  00 42 43.903077 -21 22 12.05891
 2018-Sep-12 00:31  m  00 42 43.687229 -21 22 10.79598
 2018-Sep-12 00:32  m  00 42 43.471303 -21 22 09.53293
 2018-Sep-12 00:33  m  00 42 43.255298 -21 22 08.26976
 2018-Sep-12 00:34  m  00 42 43.039214 -21 22 07.00647
 2018-Sep-12 00:35  m  00 42 42.823051 -21 22 05.74306
 2018-Sep-12 00:36  m  00 42 42.606811 -21 22 04.47952
 2018-Sep-12 00:37  m  00 42 42.390491 -21 22 03.21586
 2018-Sep-12 00:38  m  00 42 42.174093 -21 22 01.95208
 2018-Sep-12 00:39  m  00 42 41.957617 -21 22 00.68816
 2018-Sep-12 00:40  m  00 42 41.741063 -21 21 59.42412
 2018-Sep-12 00:41  m  00 42 41.524430 -21 21 58.15994
 2018-Sep-12 00:42  m  00 42 41.307719 -21 21 56.89563
 2018-Sep-12 00:43  m  00 42 41.090930 -21 21 55.63119
